2026-132F               
1 69507U 26132F   26164.41540372  .00003170  00000+0  25250-3 0  9993
2 69507  97.6869 228.1362 0010915 319.8335  40.2082 15.01040982   204
2026-134A               
1 69538U 26134A   26166.46464241  .00000733  00000+0  50207-4 0  9999
2 69538  97.7021 236.5591 0014098 278.2998  81.6631 15.09188774    57
2026-134B               
1 69539U 26134B   26166.46461128  .00001398  00000+0  91586-4 0  9994
2 69539  97.6968 236.5585 0014612 281.1430  78.8156 15.09347764    41
2026-134C               
1 69540U 26134C   26166.46460766  .00001400  00000+0  91654-4 0  9993
2 69540  97.6941 236.5578 0013934 282.6149  77.3521 15.09376098    47
2026-134D               
1 69541U 26134D   26166.46459203  .00001398  00000+0  91343-4 0  9999
2 69541  97.7030 236.5599 0014889 281.4998  78.4559 15.09439091    46
2026-134E               
1 69542U 26134E   26166.46458882  .00001398  00000+0  91299-4 0  9992
2 69542  97.7040 236.5599 0014779 282.3968  77.5607 15.09464710    43
2026-134F               
1 69543U 26134F   26166.46458309  .00001401  00000+0  91379-4 0  9991
2 69543  97.7019 236.5590 0013819 284.4873  75.4822 15.09516651    41
2026-134G               
1 69544U 26134G   26166.46456304  .00001402  00000+0  91199-4 0  9996
2 69544  97.7020 236.5610 0014434 281.7021  78.2587 15.09594108    48
2026-134H               
1 69545U 26134H   26166.46455277  .00001402  00000+0  91048-4 0  9998
2 69545  97.7024 236.5609 0014220 285.6282  74.3377 15.09652511    32
